<?xml version="1.0" encoding="UTF-8"?>
<gpx version="1.1" creator="RouteModel" xmlns="http://www.topografix.com/GPX/1/1">
    <wpt lat="51.248166" lon="4.067001">
        <name>1</name>
    </wpt>
    <wpt lat="51.250093" lon="4.075428">
        <name>2</name>
    </wpt>
    <wpt lat="51.251601" lon="4.080969">
        <name>3</name>
    </wpt>
    <wpt lat="51.256318" lon="4.076269">
        <name>4</name>
    </wpt>
    <wpt lat="51.262733" lon="4.069847">
        <name>5</name>
    </wpt>
    <wpt lat="51.262500" lon="4.068020">
        <name>6</name>
    </wpt>
    <wpt lat="51.262220" lon="4.063460">
        <name>7</name>
    </wpt>
    <wpt lat="51.261882" lon="4.063106">
        <name>8</name>
    </wpt>
    <wpt lat="51.260318" lon="4.063868">
        <name>9</name>
    </wpt>
    <wpt lat="51.260281" lon="4.063493">
        <name>10</name>
    </wpt>
    <wpt lat="51.258282" lon="4.064722">
        <name>11</name>
    </wpt>
    <wpt lat="51.257901" lon="4.064726">
        <name>12</name>
    </wpt>
    <wpt lat="51.255368" lon="4.065150">
        <name>13</name>
    </wpt>
    <wpt lat="51.255210" lon="4.065381">
        <name>14</name>
    </wpt>
    <wpt lat="51.248266" lon="4.064545">
        <name>15</name>
    </wpt>
    <wpt lat="51.248172" lon="4.064752">
        <name>16</name>
    </wpt>
    <wpt lat="51.247817" lon="4.064954">
        <name>17</name>
    </wpt>
    <trk>
        <trkseg>
            <trkpt lat="51.248170" lon="4.066999"/>
            <trkpt lat="51.248299" lon="4.067612"/>
            <trkpt lat="51.248643" lon="4.069246"/>
            <trkpt lat="51.248990" lon="4.070886"/>
            <trkpt lat="51.249046" lon="4.071132"/>
            <trkpt lat="51.249249" lon="4.072111"/>
            <trkpt lat="51.249385" lon="4.072697"/>
            <trkpt lat="51.249566" lon="4.073390"/>
            <trkpt lat="51.249913" lon="4.074735"/>
            <trkpt lat="51.250117" lon="4.075507"/>
            <trkpt lat="51.250117" lon="4.075507"/>
            <trkpt lat="51.250117" lon="4.075507"/>
            <trkpt lat="51.250492" lon="4.076930"/>
            <trkpt lat="51.250867" lon="4.078352"/>
            <trkpt lat="51.251077" lon="4.079159"/>
            <trkpt lat="51.251100" lon="4.079247"/>
            <trkpt lat="51.251107" lon="4.079273"/>
            <trkpt lat="51.251118" lon="4.079317"/>
            <trkpt lat="51.251156" lon="4.079470"/>
            <trkpt lat="51.251254" lon="4.079842"/>
            <trkpt lat="51.251334" lon="4.080142"/>
            <trkpt lat="51.251412" lon="4.080425"/>
            <trkpt lat="51.251495" lon="4.080679"/>
            <trkpt lat="51.251566" lon="4.080877"/>
            <trkpt lat="51.251604" lon="4.080981"/>
            <trkpt lat="51.251604" lon="4.080981"/>
            <trkpt lat="51.251615" lon="4.081010"/>
            <trkpt lat="51.251615" lon="4.081010"/>
            <trkpt lat="51.252017" lon="4.080590"/>
            <trkpt lat="51.252345" lon="4.080257"/>
            <trkpt lat="51.252345" lon="4.080257"/>
            <trkpt lat="51.253054" lon="4.079539"/>
            <trkpt lat="51.253530" lon="4.079061"/>
            <trkpt lat="51.253614" lon="4.078978"/>
            <trkpt lat="51.253633" lon="4.078959"/>
            <trkpt lat="51.253700" lon="4.078900"/>
            <trkpt lat="51.253729" lon="4.078867"/>
            <trkpt lat="51.253731" lon="4.078865"/>
            <trkpt lat="51.255054" lon="4.077535"/>
            <trkpt lat="51.256376" lon="4.076205"/>
            <trkpt lat="51.256376" lon="4.076205"/>
            <trkpt lat="51.257087" lon="4.075489"/>
            <trkpt lat="51.257951" lon="4.074620"/>
            <trkpt lat="51.258810" lon="4.073756"/>
            <trkpt lat="51.259591" lon="4.072970"/>
            <trkpt lat="51.260373" lon="4.072184"/>
            <trkpt lat="51.261749" lon="4.070822"/>
            <trkpt lat="51.261899" lon="4.070671"/>
            <trkpt lat="51.262086" lon="4.070482"/>
            <trkpt lat="51.262695" lon="4.069878"/>
            <trkpt lat="51.262752" lon="4.069821"/>
            <trkpt lat="51.262752" lon="4.069821"/>
            <trkpt lat="51.262730" lon="4.069688"/>
            <trkpt lat="51.262730" lon="4.069688"/>
            <trkpt lat="51.262591" lon="4.068852"/>
            <trkpt lat="51.262555" lon="4.068633"/>
            <trkpt lat="51.262521" lon="4.068371"/>
            <trkpt lat="51.262503" lon="4.068144"/>
            <trkpt lat="51.262503" lon="4.068144"/>
            <trkpt lat="51.262484" lon="4.067880"/>
            <trkpt lat="51.262359" lon="4.065741"/>
            <trkpt lat="51.262233" lon="4.063602"/>
            <trkpt lat="51.262215" lon="4.063381"/>
            <trkpt lat="51.262215" lon="4.063381"/>
            <trkpt lat="51.262194" lon="4.063267"/>
            <trkpt lat="51.262169" lon="4.063215"/>
            <trkpt lat="51.262139" lon="4.063179"/>
            <trkpt lat="51.262097" lon="4.063151"/>
            <trkpt lat="51.262045" lon="4.063119"/>
            <trkpt lat="51.262041" lon="4.063094"/>
            <trkpt lat="51.261793" lon="4.063111"/>
            <trkpt lat="51.261793" lon="4.063111"/>
            <trkpt lat="51.261659" lon="4.063143"/>
            <trkpt lat="51.261510" lon="4.063200"/>
            <trkpt lat="51.260941" lon="4.063552"/>
            <trkpt lat="51.260925" lon="4.063562"/>
            <trkpt lat="51.260769" lon="4.063663"/>
            <trkpt lat="51.260650" lon="4.063733"/>
            <trkpt lat="51.260565" lon="4.063786"/>
            <trkpt lat="51.260542" lon="4.063798"/>
            <trkpt lat="51.260526" lon="4.063806"/>
            <trkpt lat="51.260508" lon="4.063813"/>
            <trkpt lat="51.260468" lon="4.063825"/>
            <trkpt lat="51.260404" lon="4.063847"/>
            <trkpt lat="51.260387" lon="4.063853"/>
            <trkpt lat="51.260290" lon="4.063882"/>
            <trkpt lat="51.260290" lon="4.063882"/>
            <trkpt lat="51.260288" lon="4.063762"/>
            <trkpt lat="51.260288" lon="4.063749"/>
            <trkpt lat="51.260288" lon="4.063721"/>
            <trkpt lat="51.260287" lon="4.063696"/>
            <trkpt lat="51.260286" lon="4.063641"/>
            <trkpt lat="51.260286" lon="4.063615"/>
            <trkpt lat="51.260285" lon="4.063587"/>
            <trkpt lat="51.260283" lon="4.063447"/>
            <trkpt lat="51.260283" lon="4.063447"/>
            <trkpt lat="51.260110" lon="4.063594"/>
            <trkpt lat="51.259854" lon="4.063785"/>
            <trkpt lat="51.259432" lon="4.064096"/>
            <trkpt lat="51.259061" lon="4.064381"/>
            <trkpt lat="51.258917" lon="4.064483"/>
            <trkpt lat="51.258779" lon="4.064552"/>
            <trkpt lat="51.258523" lon="4.064656"/>
            <trkpt lat="51.258301" lon="4.064721"/>
            <trkpt lat="51.258264" lon="4.064728"/>
            <trkpt lat="51.258264" lon="4.064728"/>
            <trkpt lat="51.258044" lon="4.064768"/>
            <trkpt lat="51.257946" lon="4.064730"/>
            <trkpt lat="51.257893" lon="4.064711"/>
            <trkpt lat="51.257893" lon="4.064711"/>
            <trkpt lat="51.257857" lon="4.064705"/>
            <trkpt lat="51.257790" lon="4.064717"/>
            <trkpt lat="51.257717" lon="4.064730"/>
            <trkpt lat="51.257717" lon="4.064730"/>
            <trkpt lat="51.257623" lon="4.064746"/>
            <trkpt lat="51.257551" lon="4.064759"/>
            <trkpt lat="51.257389" lon="4.064822"/>
            <trkpt lat="51.256530" lon="4.064960"/>
            <trkpt lat="51.256042" lon="4.065082"/>
            <trkpt lat="51.255921" lon="4.065083"/>
            <trkpt lat="51.255901" lon="4.065087"/>
            <trkpt lat="51.255319" lon="4.065157"/>
            <trkpt lat="51.255319" lon="4.065157"/>
            <trkpt lat="51.255292" lon="4.065171"/>
            <trkpt lat="51.255277" lon="4.065226"/>
            <trkpt lat="51.255278" lon="4.065269"/>
            <trkpt lat="51.255267" lon="4.065337"/>
            <trkpt lat="51.255246" lon="4.065358"/>
            <trkpt lat="51.255246" lon="4.065358"/>
            <trkpt lat="51.254816" lon="4.065538"/>
            <trkpt lat="51.254559" lon="4.065607"/>
            <trkpt lat="51.254294" lon="4.065659"/>
            <trkpt lat="51.253999" lon="4.065688"/>
            <trkpt lat="51.253520" lon="4.065733"/>
            <trkpt lat="51.253219" lon="4.065752"/>
            <trkpt lat="51.253197" lon="4.065752"/>
            <trkpt lat="51.253169" lon="4.065747"/>
            <trkpt lat="51.253073" lon="4.065738"/>
            <trkpt lat="51.252988" lon="4.065709"/>
            <trkpt lat="51.252604" lon="4.065691"/>
            <trkpt lat="51.252326" lon="4.065676"/>
            <trkpt lat="51.252147" lon="4.065645"/>
            <trkpt lat="51.251731" lon="4.065528"/>
            <trkpt lat="51.251236" lon="4.065393"/>
            <trkpt lat="51.249753" lon="4.064965"/>
            <trkpt lat="51.249562" lon="4.064917"/>
            <trkpt lat="51.249335" lon="4.064866"/>
            <trkpt lat="51.248836" lon="4.064725"/>
            <trkpt lat="51.248507" lon="4.064641"/>
            <trkpt lat="51.248354" lon="4.064589"/>
            <trkpt lat="51.248224" lon="4.064518"/>
            <trkpt lat="51.248224" lon="4.064518"/>
            <trkpt lat="51.248219" lon="4.064564"/>
            <trkpt lat="51.248215" lon="4.064598"/>
            <trkpt lat="51.248212" lon="4.064619"/>
            <trkpt lat="51.248205" lon="4.064668"/>
            <trkpt lat="51.248201" lon="4.064695"/>
            <trkpt lat="51.248196" lon="4.064733"/>
            <trkpt lat="51.248193" lon="4.064762"/>
            <trkpt lat="51.248193" lon="4.064762"/>
            <trkpt lat="51.248145" lon="4.064745"/>
            <trkpt lat="51.248125" lon="4.064744"/>
            <trkpt lat="51.248104" lon="4.064746"/>
            <trkpt lat="51.248076" lon="4.064764"/>
            <trkpt lat="51.248053" lon="4.064784"/>
            <trkpt lat="51.248026" lon="4.064797"/>
            <trkpt lat="51.247999" lon="4.064802"/>
            <trkpt lat="51.247965" lon="4.064803"/>
            <trkpt lat="51.247944" lon="4.064813"/>
            <trkpt lat="51.247925" lon="4.064830"/>
            <trkpt lat="51.247908" lon="4.064848"/>
            <trkpt lat="51.247890" lon="4.064892"/>
            <trkpt lat="51.247877" lon="4.064934"/>
            <trkpt lat="51.247855" lon="4.064920"/>
            <trkpt lat="51.247829" lon="4.064904"/>
            <trkpt lat="51.247826" lon="4.064921"/>
            <trkpt lat="51.247816" lon="4.064977"/>
        </trkseg>
    </trk>
</gpx>
