<?xml version="1.0" encoding="UTF-8"?>
<gpx version="1.1" creator="RouteModel" xmlns="http://www.topografix.com/GPX/1/1">
    <wpt lat="51.248160" lon="4.066952">
        <name>1</name>
    </wpt>
    <wpt lat="51.249566" lon="4.073390">
        <name>2</name>
    </wpt>
    <wpt lat="51.247087" lon="4.076744">
        <name>3</name>
    </wpt>
    <wpt lat="51.244618" lon="4.063310">
        <name>4</name>
    </wpt>
    <wpt lat="51.247310" lon="4.064357">
        <name>5</name>
    </wpt>
    <wpt lat="51.247633" lon="4.064572">
        <name>6</name>
    </wpt>
    <wpt lat="51.248224" lon="4.064518">
        <name>7</name>
    </wpt>
    <wpt lat="51.248196" lon="4.064733">
        <name>8</name>
    </wpt>
    <wpt lat="51.247877" lon="4.064934">
        <name>9</name>
    </wpt>
    <wpt lat="51.248136" lon="4.066839">
        <name>10</name>
    </wpt>
    <trk>
        <trkseg>
            <trkpt lat="51.248160" lon="4.066952"/>
            <trkpt lat="51.248299" lon="4.067612"/>
            <trkpt lat="51.248643" lon="4.069246"/>
            <trkpt lat="51.248990" lon="4.070886"/>
            <trkpt lat="51.249046" lon="4.071132"/>
            <trkpt lat="51.249249" lon="4.072111"/>
            <trkpt lat="51.249385" lon="4.072697"/>
            <trkpt lat="51.249566" lon="4.073390"/>
            <trkpt lat="51.249566" lon="4.073390"/>
            <trkpt lat="51.249566" lon="4.073390"/>
            <trkpt lat="51.249292" lon="4.073553"/>
            <trkpt lat="51.249140" lon="4.073722"/>
            <trkpt lat="51.248917" lon="4.074298"/>
            <trkpt lat="51.248844" lon="4.074429"/>
            <trkpt lat="51.248759" lon="4.074546"/>
            <trkpt lat="51.248250" lon="4.075302"/>
            <trkpt lat="51.248184" lon="4.075347"/>
            <trkpt lat="51.248023" lon="4.075558"/>
            <trkpt lat="51.247642" lon="4.076113"/>
            <trkpt lat="51.247399" lon="4.076447"/>
            <trkpt lat="51.247087" lon="4.076744"/>
            <trkpt lat="51.247087" lon="4.076744"/>
            <trkpt lat="51.247087" lon="4.076744"/>
            <trkpt lat="51.246950" lon="4.076377"/>
            <trkpt lat="51.246794" lon="4.076078"/>
            <trkpt lat="51.246649" lon="4.075664"/>
            <trkpt lat="51.246543" lon="4.075312"/>
            <trkpt lat="51.246543" lon="4.075312"/>
            <trkpt lat="51.246531" lon="4.075274"/>
            <trkpt lat="51.246425" lon="4.074969"/>
            <trkpt lat="51.246336" lon="4.074819"/>
            <trkpt lat="51.246233" lon="4.074664"/>
            <trkpt lat="51.246112" lon="4.074487"/>
            <trkpt lat="51.246034" lon="4.074299"/>
            <trkpt lat="51.245995" lon="4.074138"/>
            <trkpt lat="51.245964" lon="4.073941"/>
            <trkpt lat="51.245897" lon="4.073734"/>
            <trkpt lat="51.245778" lon="4.073247"/>
            <trkpt lat="51.245747" lon="4.072995"/>
            <trkpt lat="51.245760" lon="4.072446"/>
            <trkpt lat="51.245711" lon="4.072202"/>
            <trkpt lat="51.245694" lon="4.072117"/>
            <trkpt lat="51.245342" lon="4.070679"/>
            <trkpt lat="51.245240" lon="4.070297"/>
            <trkpt lat="51.245170" lon="4.069766"/>
            <trkpt lat="51.245170" lon="4.069766"/>
            <trkpt lat="51.245150" lon="4.069616"/>
            <trkpt lat="51.245004" lon="4.068606"/>
            <trkpt lat="51.244853" lon="4.067588"/>
            <trkpt lat="51.244809" lon="4.067180"/>
            <trkpt lat="51.244741" lon="4.066210"/>
            <trkpt lat="51.244696" lon="4.065112"/>
            <trkpt lat="51.244684" lon="4.064829"/>
            <trkpt lat="51.244671" lon="4.064556"/>
            <trkpt lat="51.244661" lon="4.064380"/>
            <trkpt lat="51.244606" lon="4.063457"/>
            <trkpt lat="51.244618" lon="4.063310"/>
            <trkpt lat="51.244618" lon="4.063310"/>
            <trkpt lat="51.244664" lon="4.063328"/>
            <trkpt lat="51.245625" lon="4.063713"/>
            <trkpt lat="51.245625" lon="4.063713"/>
            <trkpt lat="51.245926" lon="4.063833"/>
            <trkpt lat="51.245972" lon="4.063851"/>
            <trkpt lat="51.245997" lon="4.063861"/>
            <trkpt lat="51.246385" lon="4.064015"/>
            <trkpt lat="51.246614" lon="4.064092"/>
            <trkpt lat="51.246781" lon="4.064153"/>
            <trkpt lat="51.247002" lon="4.064241"/>
            <trkpt lat="51.247310" lon="4.064357"/>
            <trkpt lat="51.247310" lon="4.064357"/>
            <trkpt lat="51.247347" lon="4.064460"/>
            <trkpt lat="51.247611" lon="4.064550"/>
            <trkpt lat="51.247633" lon="4.064572"/>
            <trkpt lat="51.247633" lon="4.064572"/>
            <trkpt lat="51.247659" lon="4.064609"/>
            <trkpt lat="51.247662" lon="4.064565"/>
            <trkpt lat="51.247665" lon="4.064538"/>
            <trkpt lat="51.247668" lon="4.064514"/>
            <trkpt lat="51.247673" lon="4.064464"/>
            <trkpt lat="51.247676" lon="4.064440"/>
            <trkpt lat="51.247678" lon="4.064412"/>
            <trkpt lat="51.247679" lon="4.064378"/>
            <trkpt lat="51.247738" lon="4.064368"/>
            <trkpt lat="51.247755" lon="4.064362"/>
            <trkpt lat="51.247784" lon="4.064355"/>
            <trkpt lat="51.247810" lon="4.064340"/>
            <trkpt lat="51.247833" lon="4.064320"/>
            <trkpt lat="51.247854" lon="4.064294"/>
            <trkpt lat="51.247873" lon="4.064269"/>
            <trkpt lat="51.247894" lon="4.064241"/>
            <trkpt lat="51.247918" lon="4.064223"/>
            <trkpt lat="51.247953" lon="4.064223"/>
            <trkpt lat="51.247980" lon="4.064225"/>
            <trkpt lat="51.248010" lon="4.064235"/>
            <trkpt lat="51.248052" lon="4.064266"/>
            <trkpt lat="51.248076" lon="4.064333"/>
            <trkpt lat="51.248099" lon="4.064400"/>
            <trkpt lat="51.248136" lon="4.064458"/>
            <trkpt lat="51.248181" lon="4.064493"/>
            <trkpt lat="51.248224" lon="4.064518"/>
            <trkpt lat="51.248224" lon="4.064518"/>
            <trkpt lat="51.248219" lon="4.064564"/>
            <trkpt lat="51.248215" lon="4.064598"/>
            <trkpt lat="51.248212" lon="4.064619"/>
            <trkpt lat="51.248205" lon="4.064668"/>
            <trkpt lat="51.248201" lon="4.064695"/>
            <trkpt lat="51.248196" lon="4.064733"/>
            <trkpt lat="51.248196" lon="4.064733"/>
            <trkpt lat="51.248193" lon="4.064762"/>
            <trkpt lat="51.248145" lon="4.064745"/>
            <trkpt lat="51.248125" lon="4.064744"/>
            <trkpt lat="51.248104" lon="4.064746"/>
            <trkpt lat="51.248076" lon="4.064764"/>
            <trkpt lat="51.248053" lon="4.064784"/>
            <trkpt lat="51.248026" lon="4.064797"/>
            <trkpt lat="51.247999" lon="4.064802"/>
            <trkpt lat="51.247965" lon="4.064803"/>
            <trkpt lat="51.247944" lon="4.064813"/>
            <trkpt lat="51.247925" lon="4.064830"/>
            <trkpt lat="51.247908" lon="4.064848"/>
            <trkpt lat="51.247890" lon="4.064892"/>
            <trkpt lat="51.247877" lon="4.064934"/>
            <trkpt lat="51.247877" lon="4.064934"/>
            <trkpt lat="51.247855" lon="4.064920"/>
            <trkpt lat="51.247829" lon="4.064904"/>
            <trkpt lat="51.247826" lon="4.064921"/>
            <trkpt lat="51.247816" lon="4.064977"/>
            <trkpt lat="51.247806" lon="4.065044"/>
            <trkpt lat="51.247805" lon="4.065068"/>
            <trkpt lat="51.247803" lon="4.065134"/>
            <trkpt lat="51.247803" lon="4.065136"/>
            <trkpt lat="51.247807" lon="4.065230"/>
            <trkpt lat="51.247816" lon="4.065298"/>
            <trkpt lat="51.247827" lon="4.065368"/>
            <trkpt lat="51.247929" lon="4.065852"/>
            <trkpt lat="51.248054" lon="4.066450"/>
            <trkpt lat="51.248136" lon="4.066839"/>
        </trkseg>
    </trk>
</gpx>
