<?xml version="1.0" encoding="utf-8" standalone="no"?>
<gpx version="1.1" creator="NodeMapp" xmlns:xsi="http://www.w3.org/2001/XMLSchema-instance" xsi:schemaLocation="http://www.topografix.com/GPX/1/1 http://www.topografix.com/GPX/1/1/gpx.xsd" xmlns="http://www.topografix.com/GPX/1/1">
  <metadata>
    <author>
      <name>NodeMapp Bike</name>
    </author>
  </metadata>
  <wpt lat="51.242687" lon="4.089939">
    <name>80</name>
    <desc>Sint-Gillis-Waas (be)</desc>
  </wpt>
  <wpt lat="51.252345" lon="4.11686">
    <name>53</name>
    <desc>Sint-Gillis-Waas (be)</desc>
  </wpt>
  <wpt lat="51.262799" lon="4.112934">
    <name>73</name>
    <desc>Sint-Gillis-Waas (be)</desc>
  </wpt>
  <wpt lat="51.278223" lon="4.081463">
    <name>51</name>
    <desc>Hulst (nl)</desc>
  </wpt>
  <wpt lat="51.277706" lon="4.063833">
    <name>50</name>
    <desc>Hulst (nl)</desc>
  </wpt>
  <wpt lat="51.277894" lon="4.063213">
    <name>50</name>
    <desc>Hulst (nl)</desc>
  </wpt>
  <wpt lat="51.27763" lon="4.063238">
    <name>50</name>
    <desc>Hulst (nl)</desc>
  </wpt>
  <wpt lat="51.242687" lon="4.089939">
    <name>80</name>
    <desc>Sint-Gillis-Waas (be)</desc>
  </wpt>
  <trk>
    <name>Default</name>
    <trkseg>
      <trkpt lat="51.242687" lon="4.089939" />
      <trkpt lat="51.243946" lon="4.093383" />
      <trkpt lat="51.245014" lon="4.091876" />
      <trkpt lat="51.245606" lon="4.09085" />
      <trkpt lat="51.246149" lon="4.0918" />
      <trkpt lat="51.246522" lon="4.093982" />
      <trkpt lat="51.250695" lon="4.104735" />
      <trkpt lat="51.252944" lon="4.103412" />
      <trkpt lat="51.253032" lon="4.104829" />
      <trkpt lat="51.253126" lon="4.115098" />
      <trkpt lat="51.25297" lon="4.115565" />
      <trkpt lat="51.252311" lon="4.11627" />
      <trkpt lat="51.252253" lon="4.116471" />
      <trkpt lat="51.252345" lon="4.11686" />
      <trkpt lat="51.253256" lon="4.115939" />
      <trkpt lat="51.260411" lon="4.114384" />
      <trkpt lat="51.262799" lon="4.112934" />
      <trkpt lat="51.262439" lon="4.112555" />
      <trkpt lat="51.262016" lon="4.107793" />
      <trkpt lat="51.264922" lon="4.106383" />
      <trkpt lat="51.264776" lon="4.10551" />
      <trkpt lat="51.264781" lon="4.104919" />
      <trkpt lat="51.265052" lon="4.102941" />
      <trkpt lat="51.27418" lon="4.103438" />
      <trkpt lat="51.274546" lon="4.109853" />
      <trkpt lat="51.274856" lon="4.109731" />
      <trkpt lat="51.275197" lon="4.108982" />
      <trkpt lat="51.276227" lon="4.108161" />
      <trkpt lat="51.277171" lon="4.107185" />
      <trkpt lat="51.27734" lon="4.102604" />
      <trkpt lat="51.27809" lon="4.10023" />
      <trkpt lat="51.278173" lon="4.099408" />
      <trkpt lat="51.277903" lon="4.0914" />
      <trkpt lat="51.278073" lon="4.091428" />
      <trkpt lat="51.278127" lon="4.091324" />
      <trkpt lat="51.278275" lon="4.091331" />
      <trkpt lat="51.278457" lon="4.091191" />
      <trkpt lat="51.278572" lon="4.090596" />
      <trkpt lat="51.278223" lon="4.081463" />
      <trkpt lat="51.277962" lon="4.07555" />
      <trkpt lat="51.277695" lon="4.07264" />
      <trkpt lat="51.277523" lon="4.07239" />
      <trkpt lat="51.277497" lon="4.072206" />
      <trkpt lat="51.277646" lon="4.071833" />
      <trkpt lat="51.277526" lon="4.069315" />
      <trkpt lat="51.27754" lon="4.066065" />
      <trkpt lat="51.277631" lon="4.065519" />
      <trkpt lat="51.277706" lon="4.063833" />
      <trkpt lat="51.277905" lon="4.063856" />
      <trkpt lat="51.278007" lon="4.063731" />
      <trkpt lat="51.278002" lon="4.063279" />
      <trkpt lat="51.277894" lon="4.063213" />
      <trkpt lat="51.27763" lon="4.063238" />
      <trkpt lat="51.277239" lon="4.063225" />
      <trkpt lat="51.276854" lon="4.063064" />
      <trkpt lat="51.276223" lon="4.06264" />
      <trkpt lat="51.275753" lon="4.0622" />
      <trkpt lat="51.274854" lon="4.060827" />
      <trkpt lat="51.273915" lon="4.058634" />
      <trkpt lat="51.271623" lon="4.061021" />
      <trkpt lat="51.270642" lon="4.061916" />
      <trkpt lat="51.270495" lon="4.061856" />
      <trkpt lat="51.267813" lon="4.064608" />
      <trkpt lat="51.265779" lon="4.066588" />
      <trkpt lat="51.265623" lon="4.066605" />
      <trkpt lat="51.265539" lon="4.066818" />
      <trkpt lat="51.26295" lon="4.06941" />
      <trkpt lat="51.262917" lon="4.069654" />
      <trkpt lat="51.263072" lon="4.069893" />
      <trkpt lat="51.262838" lon="4.070045" />
      <trkpt lat="51.262793" lon="4.069764" />
      <trkpt lat="51.242687" lon="4.089939" />
    </trkseg>
  </trk>
</gpx>