<?xml version="1.0" encoding="UTF-8"?>
<gpx version="1.1" creator="RouteModel" xmlns="http://www.topografix.com/GPX/1/1">
    <wpt lat="51.166025" lon="4.137288">
        <name>36</name>
    </wpt>
    <wpt lat="51.170231" lon="4.139337">
        <name>40</name>
    </wpt>
    <wpt lat="51.190135" lon="4.126478">
        <name>83</name>
    </wpt>
    <wpt lat="51.195401" lon="4.124076">
        <name>39</name>
    </wpt>
    <wpt lat="51.213794" lon="4.115725">
        <name>82</name>
    </wpt>
    <wpt lat="51.224406" lon="4.108301">
        <name>81</name>
    </wpt>
    <wpt lat="51.242687" lon="4.089939">
        <name>80</name>
    </wpt>
    <wpt lat="51.277602" lon="4.063604">
        <name>50</name>
    </wpt>
    <wpt lat="51.277706" lon="4.063833">
        <name>50</name>
    </wpt>
    <wpt lat="51.277894" lon="4.063213">
        <name>50</name>
    </wpt>
    <trk>
        <trkseg>
            <trkpt lat="51.166025" lon="4.137288"/>
            <trkpt lat="51.166989" lon="4.137402"/>
            <trkpt lat="51.169505" lon="4.139046"/>
            <trkpt lat="51.169712" lon="4.138796"/>
            <trkpt lat="51.170231" lon="4.139337"/>
            <trkpt lat="51.170231" lon="4.139337"/>
            <trkpt lat="51.170231" lon="4.139337"/>
            <trkpt lat="51.170231" lon="4.139337"/>
            <trkpt lat="51.170231" lon="4.139337"/>
            <trkpt lat="51.170401" lon="4.137914"/>
            <trkpt lat="51.170888" lon="4.136580"/>
            <trkpt lat="51.171731" lon="4.135169"/>
            <trkpt lat="51.172444" lon="4.134437"/>
            <trkpt lat="51.172820" lon="4.134198"/>
            <trkpt lat="51.183693" lon="4.129459"/>
            <trkpt lat="51.190135" lon="4.126478"/>
            <trkpt lat="51.190135" lon="4.126478"/>
            <trkpt lat="51.190135" lon="4.126478"/>
            <trkpt lat="51.190135" lon="4.126478"/>
            <trkpt lat="51.190135" lon="4.126478"/>
            <trkpt lat="51.195401" lon="4.124076"/>
            <trkpt lat="51.195401" lon="4.124076"/>
            <trkpt lat="51.195401" lon="4.124076"/>
            <trkpt lat="51.195401" lon="4.124076"/>
            <trkpt lat="51.195401" lon="4.124076"/>
            <trkpt lat="51.213794" lon="4.115725"/>
            <trkpt lat="51.213794" lon="4.115725"/>
            <trkpt lat="51.213794" lon="4.115725"/>
            <trkpt lat="51.213794" lon="4.115725"/>
            <trkpt lat="51.213794" lon="4.115725"/>
            <trkpt lat="51.215921" lon="4.114760"/>
            <trkpt lat="51.222066" lon="4.110349"/>
            <trkpt lat="51.222779" lon="4.109921"/>
            <trkpt lat="51.224406" lon="4.108301"/>
            <trkpt lat="51.224406" lon="4.108301"/>
            <trkpt lat="51.224406" lon="4.108301"/>
            <trkpt lat="51.224406" lon="4.108301"/>
            <trkpt lat="51.224406" lon="4.108301"/>
            <trkpt lat="51.242687" lon="4.089939"/>
            <trkpt lat="51.242687" lon="4.089939"/>
            <trkpt lat="51.242687" lon="4.089939"/>
            <trkpt lat="51.242687" lon="4.089939"/>
            <trkpt lat="51.242687" lon="4.089939"/>
            <trkpt lat="51.262793" lon="4.069764"/>
            <trkpt lat="51.262838" lon="4.070045"/>
            <trkpt lat="51.263072" lon="4.069893"/>
            <trkpt lat="51.262917" lon="4.069654"/>
            <trkpt lat="51.262950" lon="4.069410"/>
            <trkpt lat="51.265539" lon="4.066818"/>
            <trkpt lat="51.265623" lon="4.066605"/>
            <trkpt lat="51.265779" lon="4.066588"/>
            <trkpt lat="51.267813" lon="4.064608"/>
            <trkpt lat="51.270495" lon="4.061856"/>
            <trkpt lat="51.270642" lon="4.061916"/>
            <trkpt lat="51.271623" lon="4.061021"/>
            <trkpt lat="51.273785" lon="4.058774"/>
            <trkpt lat="51.274579" lon="4.060704"/>
            <trkpt lat="51.275301" lon="4.061941"/>
            <trkpt lat="51.276017" lon="4.062742"/>
            <trkpt lat="51.276453" lon="4.063075"/>
            <trkpt lat="51.277275" lon="4.063526"/>
            <trkpt lat="51.277602" lon="4.063604"/>
            <trkpt lat="51.277602" lon="4.063604"/>
            <trkpt lat="51.277602" lon="4.063604"/>
            <trkpt lat="51.277602" lon="4.063604"/>
            <trkpt lat="51.277602" lon="4.063604"/>
            <trkpt lat="51.277706" lon="4.063833"/>
            <trkpt lat="51.277706" lon="4.063833"/>
            <trkpt lat="51.277706" lon="4.063833"/>
            <trkpt lat="51.277706" lon="4.063833"/>
            <trkpt lat="51.277706" lon="4.063833"/>
            <trkpt lat="51.277905" lon="4.063856"/>
            <trkpt lat="51.278007" lon="4.063731"/>
            <trkpt lat="51.278002" lon="4.063279"/>
            <trkpt lat="51.277894" lon="4.063213"/>
        </trkseg>
    </trk>
</gpx>
